NORAD_CAT_ID,OBJECT_NAME,OBJECT_TYPE,EPOCH,MEAN_MOTION,ECCENTRICITY,INCLINATION,RA_OF_ASC_NODE,ARG_OF_PERICENTER,MEAN_ANOMALY,BSTAR,MEAN_MOTION_DOT,MEAN_MOTION_DDOT,TLE_LINE0,TLE_LINE1,TLE_LINE2,SEMIMAJOR_AXIS,PERIOD,APOGEE,PERIGEE,DECAYED
51870.0,STARLINK-3591,PAYLOAD,2023-11-17 22:03:43,15.08847566,0.0001543,53.2141,192.464,87.2865,272.8304,0.00028797,4.299e-05,0.0,0 STARLINK-3591,1 51870U 22022U   23321.91925661  .00004299  00000-0  28797-3 0  9999,2 51870  53.2141 192.4640 0001543  87.2865 272.8304 15.08847566 95936,6917.857,95.437,540.79,538.655,0.0
51870.0,STARLINK-3591,PAYLOAD,2023-11-18 01:14:30,15.08849084,0.0001481,53.214,191.8693,84.7211,275.395,0.00048089,7.376e-05,0.0,0 STARLINK-3591,1 51870U 22022U   23322.05173686  .00007376  00000-0  48089-3 0  9992,2 51870  53.2140 191.8693 0001481  84.7211 275.3950 15.08849084 95958,6917.853,95.437,540.742,538.693,0.0
51870.0,STARLINK-3591,PAYLOAD,2023-11-18 21:54:30,15.08841362,0.0001506,53.2144,188.0032,85.6166,274.4998,9.8974e-05,1.288e-05,0.0,0 STARLINK-3591,1 51870U 22022U   23322.91285749  .00001288  00000-0  98974-4 0  9996,2 51870  53.2144 188.0032 0001506  85.6166 274.4998 15.08841362 96082,6917.876,95.437,540.783,538.699,0.0
51870.0,STARLINK-3591,PAYLOAD,2023-11-19 21:45:17,15.08845699,0.0001467,53.2145,183.5426,87.9156,272.2004,0.00010697,1.415e-05,0.0,0 STARLINK-3591,1 51870U 22022U   23323.90645440  .00001415  00000-0  10697-3 0  9991,2 51870  53.2145 183.5426 0001467  87.9156 272.2004 15.08845699 96238,6917.863,95.437,540.743,538.713,0.0
51870.0,STARLINK-3591,PAYLOAD,2023-11-20 02:31:26,15.08848522,0.0001481,53.2147,182.6506,88.2843,271.8318,0.00013364,1.84e-05,0.0,0 STARLINK-3591,1 51870U 22022U   23324.10517211  .00001840  00000-0  13364-3 0  9994,2 51870  53.2147 182.6506 0001481  88.2843 271.8318 15.08848522 96266,6917.854,95.437,540.744,538.695,0.0
51870.0,STARLINK-3591,PAYLOAD,2023-11-20 07:17:36,15.08836976,0.0002022,53.2147,181.758,77.8012,282.3206,-2.6985e-05,-7.18e-06,0.0,0 STARLINK-3591,1 51870U 22022U   23324.30389997 -.00000718  00000-0 -26985-4 0  9993,2 51870  53.2147 181.7580 0002022  77.8012 282.3206 15.08836976 96298,6917.89,95.438,541.153,538.356,0.0
51870.0,STARLINK-3591,PAYLOAD,2023-11-20 21:36:05,15.08837767,0.0001523,53.217,179.0849,94.6116,265.505,1.7293e-05,-1.3e-07,0.0,0 STARLINK-3591,1 51870U 22022U   23324.90005864 -.00000013  00000-0  17293-4 0  9996,2 51870  53.2170 179.0849 0001523  94.6116 265.5050 15.08837767 96388,6917.887,95.438,540.806,538.699,0.0
51870.0,STARLINK-3591,PAYLOAD,2023-11-21 07:08:24,15.08835667,0.0001466,53.2147,177.2984,87.1145,273.0015,-4.906e-06,-3.66e-06,0.0,0 STARLINK-3591,1 51870U 22022U   23325.29750048 -.00000366  00000-0 -49060-5 0  9990,2 51870  53.2147 177.2984 0001466  87.1145 273.0015 15.08835667 96446,6917.894,95.438,540.773,538.744,0.0
51870.0,STARLINK-3591,PAYLOAD,2023-11-21 21:26:52,15.08843214,0.0001453,53.2146,174.6221,87.43,272.6858,0.00010169,1.331e-05,0.0,0 STARLINK-3591,1 51870U 22022U   23325.89365854  .00001331  00000-0  10169-3 0  9990,2 51870  53.2146 174.6221 0001453  87.4300 272.6858 15.08843214 96539,6917.871,95.437,540.741,538.73,0.0
51870.0,STARLINK-3591,PAYLOAD,2023-11-22 13:20:43,15.0884429,0.000148,53.2147,171.6483,85.4585,274.6576,0.00021608,3.153e-05,0.0,0 STARLINK-3591,1 51870U 22022U   23326.55605907  .00003153  00000-0  21608-3 0  9994,2 51870  53.2147 171.6483 0001480  85.4585 274.6576 15.08844290 96635,6917.867,95.437,540.756,538.708,0.0
51870.0,STARLINK-3591,PAYLOAD,2023-11-22 21:17:38,15.08850337,0.0001445,53.2144,170.1614,86.1254,273.9903,0.00031425,4.718e-05,0.0,0 STARLINK-3591,1 51870U 22022U   23326.88725632  .00004718  00000-0  31425-3 0  9994,2 51870  53.2144 170.1614 0001445  86.1254 273.9903 15.08850337 96684,6917.849,95.437,540.713,538.714,0.0
51870.0,STARLINK-3591,PAYLOAD,2023-11-23 19:33:03,15.08835673,0.0001446,53.215,166.0011,91.6757,268.4401,2.1205e-05,5e-07,0.0,0 STARLINK-3591,1 51870U 22022U   23327.81462463  .00000050  00000-0  21205-4 0  9999,2 51870  53.2150 166.0011 0001446  91.6757 268.4401 15.08835673 96820,6917.894,95.438,540.759,538.758,0.0
51870.0,STARLINK-3591,PAYLOAD,2023-11-23 21:08:26,15.08834075,0.0001423,53.2147,165.7038,86.7088,273.4067,-2.9742e-06,-3.35e-06,0.0,0 STARLINK-3591,1 51870U 22022U   23327.88086559 -.00000335  00000-0 -29742-5 0  9997,2 51870  53.2147 165.7038 0001423  86.7088 273.4067 15.08834075 96838,6917.898,95.438,540.748,538.779,0.0
51870.0,STARLINK-3591,PAYLOAD,2023-11-24 13:02:18,15.088387,0.0001381,53.2148,162.727,93.425,266.69,0.00010954,1.456e-05,0.0,0 STARLINK-3591,1 51870U 22022U   23328.54326669  .00001456  00000-0  10954-3 0  9996,2 51870  53.2148 162.7270 0001381  93.4250 266.6900 15.08838700 96933,6917.884,95.438,540.705,538.794,0.0
51870.0,STARLINK-3591,PAYLOAD,2023-11-24 19:23:50,15.08840353,0.0001424,53.2149,161.5381,86.37,273.7455,0.00018908,2.723e-05,0.0,0 STARLINK-3591,1 51870U 22022U   23328.80822767  .00002723  00000-0  18908-3 0  9990,2 51870  53.2149 161.5381 0001424  86.3700 273.7455 15.08840353 96978,6917.879,95.438,540.729,538.759,0.0
51870.0,STARLINK-3591,PAYLOAD,2023-11-24 22:34:37,15.08835375,0.0001337,53.2143,160.9437,94.4306,265.6839,0.00011692,1.573e-05,0.0,0 STARLINK-3591,1 51870U 22022U   23328.94070967  .00001573  00000-0  11692-3 0  9997,2 51870  53.2143 160.9437 0001337  94.4306 265.6839 15.08835375 96998,6917.895,95.438,540.684,538.835,0.0
51870.0,STARLINK-3591,PAYLOAD,2023-11-25 19:14:38,15.08835878,0.000166,53.2143,157.0784,71.4264,288.6909,0.00017676,2.526e-05,0.0,0 STARLINK-3591,1 51870U 22022U   23329.80183724  .00002526  00000-0  17676-3 0  9996,2 51870  53.2143 157.0784 0001660  71.4264 288.6909 15.08835878 97124,6917.893,95.438,540.906,538.61,0.0
51870.0,STARLINK-3591,PAYLOAD,2023-11-26 00:00:47,15.08843981,0.0001638,53.2143,156.1863,73.36,286.7572,0.00028573,4.263e-05,0.0,0 STARLINK-3591,1 51870U 22022U   23330.00055408  .00004263  00000-0  28573-3 0  9995,2 51870  53.2143 156.1863 0001638  73.3600 286.7572 15.08843981 97154,6917.868,95.437,540.866,538.6,0.0
51870.0,STARLINK-3591,PAYLOAD,2023-11-26 22:16:11,15.08857192,0.0001608,53.2142,152.0204,78.4305,281.6867,0.00043679,6.674e-05,0.0,0 STARLINK-3591,1 51870U 22022U   23330.92790612  .00006674  00000-0  43679-3 0  9991,2 51870  53.2142 152.0204 0001608  78.4305 281.6867 15.08857192 97297,6917.828,95.436,540.805,538.58,0.0
51870.0,STARLINK-3591,PAYLOAD,2023-11-27 12:34:40,15.08827524,0.0001628,53.2143,149.3432,75.05,285.0672,-0.00024565,-4.194e-05,0.0,0 STARLINK-3591,1 51870U 22022U   23331.52407798 -.00004194  00000-0 -24565-3 0  9998,2 51870  53.2143 149.3432 0001628  75.0500 285.0672 15.08827524 97380,6917.919,95.438,540.91,538.657,0.0
51870.0,STARLINK-3591,PAYLOAD,2023-11-27 17:20:50,15.08799033,0.0001706,53.2145,148.4493,51.0787,309.0357,-0.00092824,-0.00015014,0.0,0 STARLINK-3591,1 51870U 22022U   23331.72280636 -.00015014  00000-0 -92824-3 0  9996,2 51870  53.2145 148.4493 0001706  51.0787 309.0357 15.08799033 97411,6918.006,95.44,541.051,538.69,0.0
51870.0,STARLINK-3591,PAYLOAD,2023-11-28 12:25:28,15.08834276,0.0001644,53.2154,144.8829,87.068,273.05,0.00054951,8.467e-05,0.0,0 STARLINK-3591,1 51870U 22022U   23332.51768520  .00008467  00000-0  54951-3 0  9998,2 51870  53.2154 144.8829 0001644  87.0680 273.0500 15.08834276 97538,6917.898,95.438,540.9,538.626,0.0
51870.0,STARLINK-3591,PAYLOAD,2023-11-28 17:11:37,15.08836629,0.0001588,53.2154,143.9896,75.7964,284.3204,0.00067317,0.00010441,0.0,0 STARLINK-3591,1 51870U 22022U   23332.71640691  .00010441  00000-0  67317-3 0  9993,2 51870  53.2154 143.9896 0001588  75.7964 284.3204 15.08836629 97561,6917.891,95.438,540.854,538.657,0.0
51870.0,STARLINK-3591,PAYLOAD,2023-11-29 18:37:46,15.08869601,0.0001398,53.215,139.2325,82.6628,277.4523,0.0006799,0.00010558,0.0,0 STARLINK-3591,1 51870U 22022U   23333.77623251  .00010558  00000-0  67990-3 0  9999,2 51870  53.2150 139.2325 0001398  82.6628 277.4523 15.08869601 97726,6917.79,95.436,540.622,538.688,0.0
51870.0,STARLINK-3591,PAYLOAD,2023-11-30 18:28:32,15.08857865,0.000132,53.2154,134.7697,92.5465,267.5678,0.00024032,3.541e-05,0.0,0 STARLINK-3591,1 51870U 22022U   23334.76982522  .00003541  00000-0  24032-3 0  9992,2 51870  53.2154 134.7697 0001320  92.5465 267.5678 15.08857865 97872,6917.826,95.436,540.604,538.778,0.0
51870.0,STARLINK-3591,PAYLOAD,2023-12-01 10:22:24,15.08844891,0.0001289,53.2134,131.8022,86.3349,273.779,5.7894e-05,6.34e-06,0.0,0 STARLINK-3591,1 51870U 22022U   23335.43222619  .00000634  00000-0  57894-4 0  9994,2 51870  53.2134 131.8022 0001289  86.3349 273.7790 15.08844891 97976,6917.865,95.437,540.622,538.839,0.0
51870.0,STARLINK-3591,PAYLOAD,2023-12-01 16:43:56,15.08846749,0.0001357,53.2142,130.6115,80.9408,279.1738,-9.2178e-06,-4.35e-06,0.0,0 STARLINK-3591,1 51870U 22022U   23335.69718607 -.00000435  00000-0 -92178-5 0  9995,2 51870  53.2142 130.6115 0001357  80.9408 279.1738 15.08846749 98019,6917.86,95.437,540.664,538.786,0.0
51870.0,STARLINK-3591,PAYLOAD,2023-12-02 16:34:44,15.08839308,0.0001549,53.2157,126.1518,75.5954,284.521,0.00086353,0.00013482,0.0,0 STARLINK-3591,1 51870U 22022U   23336.69078926  .00013482  00000-0  86353-3 0  9999,2 51870  53.2157 126.1518 0001549  75.5954 284.5210 15.08839308 98165,6917.883,95.438,540.819,538.676,0.0
51870.0,STARLINK-3591,PAYLOAD,2023-12-03 10:03:58,15.08830009,0.0001434,53.216,122.8769,110.5963,249.5183,-0.00018948,-3.301e-05,0.0,0 STARLINK-3591,1 51870U 22022U   23337.41942924 -.00003301  00000-0 -18948-3 0  9994,2 51870  53.2160 122.8769 0001434 110.5963 249.5183 15.08830009 98274,6917.911,95.438,540.768,538.784,0.0
51870.0,STARLINK-3591,PAYLOAD,2023-12-03 13:14:45,15.08824269,0.0001416,53.2167,122.281,112.256,247.8583,-0.00023749,-4.064e-05,0.0,0 STARLINK-3591,1 51870U 22022U   23337.55191288 -.00004064  00000-0 -23749-3 0  9990,2 51870  53.2167 122.2810 0001416 112.2560 247.8583 15.08824269 98292,6917.928,95.439,540.773,538.814,0.0
